{"fetched_at":"2026-07-12T05:52:57.690Z","source":"https://celestrak.org/NORAD/elements/gp.php?NAME=HAWK&FORMAT=JSON","constellation":"hawkeye-360","records":[{"OBJECT_NAME":"HAWK-B","OBJECT_ID":"2018-099AN","EPOCH":"2026-07-11T16:19:35.118048","CLASSIFICATION_TYPE":"U","MEAN_MOTION":15.23089676,"ECCENTRICITY":0.0031044,"INCLINATION":97.3953,"RA_OF_ASC_NODE":243.9622,"ARG_OF_PERICENTER":214.6095,"MEAN_ANOMALY":145.3122,"EPHEMERIS_TYPE":0,"NORAD_CAT_ID":43794,"ELEMENT_SET_NO":999,"REV_AT_EPOCH":41676,"BSTAR":0.00015607,"MEAN_MOTION_DOT":0.00003655,"MEAN_MOTION_DDOT":0},{"OBJECT_NAME":"HAWK-C","OBJECT_ID":"2018-099AT","EPOCH":"2026-07-11T17:55:09.493824","CLASSIFICATION_TYPE":"U","MEAN_MOTION":15.28455421,"ECCENTRICITY":0.0039957,"INCLINATION":97.3882,"RA_OF_ASC_NODE":245.6984,"ARG_OF_PERICENTER":196.041,"MEAN_ANOMALY":163.9568,"EPHEMERIS_TYPE":0,"NORAD_CAT_ID":43799,"ELEMENT_SET_NO":999,"REV_AT_EPOCH":41766,"BSTAR":0.00017842,"MEAN_MOTION_DOT":0.00004981,"MEAN_MOTION_DDOT":0},{"OBJECT_NAME":"HAWK-2C","OBJECT_ID":"2021-006CT","EPOCH":"2026-07-11T15:59:32.418816","CLASSIFICATION_TYPE":"U","MEAN_MOTION":15.34960543,"ECCENTRICITY":0.0008596,"INCLINATION":97.2271,"RA_OF_ASC_NODE":236.49,"ARG_OF_PERICENTER":110.8364,"MEAN_ANOMALY":249.3801,"EPHEMERIS_TYPE":0,"NORAD_CAT_ID":47502,"ELEMENT_SET_NO":999,"REV_AT_EPOCH":30325,"BSTAR":0.00012191,"MEAN_MOTION_DOT":0.00004059,"MEAN_MOTION_DDOT":0},{"OBJECT_NAME":"HAWK-2A","OBJECT_ID":"2021-006CW","EPOCH":"2026-07-11T16:02:47.560128","CLASSIFICATION_TYPE":"U","MEAN_MOTION":15.34975584,"ECCENTRICITY":0.0008103,"INCLINATION":97.2313,"RA_OF_ASC_NODE":237.1844,"ARG_OF_PERICENTER":114.046,"MEAN_ANOMALY":246.1633,"EPHEMERIS_TYPE":0,"NORAD_CAT_ID":47505,"ELEMENT_SET_NO":999,"REV_AT_EPOCH":30325,"BSTAR":0.00012322,"MEAN_MOTION_DOT":0.00004105,"MEAN_MOTION_DDOT":0},{"OBJECT_NAME":"HAWK-3B","OBJECT_ID":"2021-059BE","EPOCH":"2026-07-11T12:50:18.778848","CLASSIFICATION_TYPE":"U","MEAN_MOTION":15.71629594,"ECCENTRICITY":0.00041689,"INCLINATION":97.6639,"RA_OF_ASC_NODE":31.5827,"ARG_OF_PERICENTER":212.057,"MEAN_ANOMALY":148.0439,"EPHEMERIS_TYPE":0,"NORAD_CAT_ID":48931,"ELEMENT_SET_NO":999,"REV_AT_EPOCH":28167,"BSTAR":0.00025308796,"MEAN_MOTION_DOT":0.00032448,"MEAN_MOTION_DDOT":0},{"OBJECT_NAME":"HAWK-3C","OBJECT_ID":"2021-059BX","EPOCH":"2026-07-11T12:49:51.971520","CLASSIFICATION_TYPE":"U","MEAN_MOTION":15.71633627,"ECCENTRICITY":0.00042487,"INCLINATION":97.6752,"RA_OF_ASC_NODE":37.3098,"ARG_OF_PERICENTER":211.5765,"MEAN_ANOMALY":148.5243,"EPHEMERIS_TYPE":0,"NORAD_CAT_ID":48948,"ELEMENT_SET_NO":999,"REV_AT_EPOCH":28167,"BSTAR":0.00024970301,"MEAN_MOTION_DOT":0.00032017,"MEAN_MOTION_DDOT":0},{"OBJECT_NAME":"HAWK-3A","OBJECT_ID":"2021-059CG","EPOCH":"2026-07-11T12:49:42.274848","CLASSIFICATION_TYPE":"U","MEAN_MOTION":15.71633774,"ECCENTRICITY":0.00043521,"INCLINATION":97.67,"RA_OF_ASC_NODE":34.495,"ARG_OF_PERICENTER":212.7236,"MEAN_ANOMALY":147.3758,"EPHEMERIS_TYPE":0,"NORAD_CAT_ID":48957,"ELEMENT_SET_NO":999,"REV_AT_EPOCH":28167,"BSTAR":0.00025470839,"MEAN_MOTION_DOT":0.00032665,"MEAN_MOTION_DDOT":0},{"OBJECT_NAME":"HAWK-6B","OBJECT_ID":"2023-011A","EPOCH":"2026-07-11T12:14:37.633056","CLASSIFICATION_TYPE":"U","MEAN_MOTION":15.23133888,"ECCENTRICITY":0.0003601,"INCLINATION":40.4968,"RA_OF_ASC_NODE":210.1816,"ARG_OF_PERICENTER":221.4345,"MEAN_ANOMALY":138.6192,"EPHEMERIS_TYPE":0,"NORAD_CAT_ID":55324,"ELEMENT_SET_NO":999,"REV_AT_EPOCH":19155,"BSTAR":0.00012152,"MEAN_MOTION_DOT":0.00002734,"MEAN_MOTION_DDOT":0},{"OBJECT_NAME":"HAWK-6C","OBJECT_ID":"2023-011C","EPOCH":"2026-07-11T12:13:43.580352","CLASSIFICATION_TYPE":"U","MEAN_MOTION":15.23135553,"ECCENTRICITY":0.0004112,"INCLINATION":40.4958,"RA_OF_ASC_NODE":207.0206,"ARG_OF_PERICENTER":211.78,"MEAN_ANOMALY":148.2762,"EPHEMERIS_TYPE":0,"NORAD_CAT_ID":55326,"ELEMENT_SET_NO":999,"REV_AT_EPOCH":19156,"BSTAR":0.00012549,"MEAN_MOTION_DOT":0.0000283,"MEAN_MOTION_DDOT":0},{"OBJECT_NAME":"HAWK-6A","OBJECT_ID":"2023-011D","EPOCH":"2026-07-11T12:13:46.619040","CLASSIFICATION_TYPE":"U","MEAN_MOTION":15.23134269,"ECCENTRICITY":0.0003628,"INCLINATION":40.4966,"RA_OF_ASC_NODE":208.6476,"ARG_OF_PERICENTER":209.463,"MEAN_ANOMALY":150.5976,"EPHEMERIS_TYPE":0,"NORAD_CAT_ID":55327,"ELEMENT_SET_NO":999,"REV_AT_EPOCH":19156,"BSTAR":0.00011852,"MEAN_MOTION_DOT":0.00002662,"MEAN_MOTION_DDOT":0},{"OBJECT_NAME":"HAWK-7A","OBJECT_ID":"2023-054P","EPOCH":"2026-07-11T17:48:17.880768","CLASSIFICATION_TYPE":"U","MEAN_MOTION":15.27609969,"ECCENTRICITY":0.000178,"INCLINATION":97.2673,"RA_OF_ASC_NODE":79.4553,"ARG_OF_PERICENTER":350.0874,"MEAN_ANOMALY":10.033,"EPHEMERIS_TYPE":0,"NORAD_CAT_ID":56191,"ELEMENT_SET_NO":999,"REV_AT_EPOCH":18077,"BSTAR":0.00012527,"MEAN_MOTION_DOT":0.00003309,"MEAN_MOTION_DDOT":0}]}
